$$SOE
2460714.500000000, A.D. 2025-Feb-08 00:00:00.0000, 4.267138058504784E+08, -2.512912922675484E+08, 4.491168921946497E+07,
2460721.500000000, A.D. 2025-Feb-15 00:00:00.0000, 4.308271550012403E+08, -2.426418612219266E+08, 4.669146594062042E+07,
2460728.500000000, A.D. 2025-Feb-22 00:00:00.0000, 4.347697849259748E+08, -2.338963374167456E+08, 4.845273841704203E+07,
2460735.500000000, A.D. 2025-Mar-01 00:00:00.0000, 4.385395181681790E+08, -2.250578538792190E+08, 5.019473970586748E+07,
2460742.500000000, A.D. 2025-Mar-08 00:00:00.0000, 4.421342268689466E+08, -2.161296009146082E+08, 5.191670434168466E+07,
2460749.500000000, A.D. 2025-Mar-15 00:00:00.0000, 4.455518342250237E+08, -2.071148240147842E+08, 5.361786878528622E+07,
2460756.500000000, A.D. 2025-Mar-22 00:00:00.0000, 4.487903137641701E+08, -1.980168231434792E+08, 5.529747196991979E+07,
2460763.500000000, A.D. 2025-Mar-29 00:00:00.0000, 4.518476900135237E+08, -1.888389542382440E+08, 5.695475554766543E+07,
2460770.500000000, A.D. 2025-Apr-05 00:00:00.0000, 4.547220408850669E+08, -1.795846297880750E+08, 5.858896406218212E+07,
2460777.500000000, A.D. 2025-Apr-12 00:00:00.0000, 4.574114998519213E+08, -1.702573183804965E+08, 6.019934523283280E+07,
2460784.500000000, A.D. 2025-Apr-19 00:00:00.0000, 4.599142577277724E+08, -1.608605440974616E+08, 6.178515029520746E+07,
2460791.500000000, A.D. 2025-Apr-26 00:00:00.0000, 4.622285643202954E+08, -1.513978859609806E+08, 6.334563435636977E+07,
2460798.500000000, A.D. 2025-May-03 00:00:00.0000, 4.643527300713639E+08, -1.418729774070780E+08, 6.488005675582853E+07,
2460805.500000000, A.D. 2025-May-10 00:00:00.0000, 4.662851277117076E+08, -1.322895057772190E+08, 6.638768143023103E+07,
2460812.500000000, A.D. 2025-May-17 00:00:00.0000, 4.680241939656954E+08, -1.226512118662011E+08, 6.786777727499637E+07,
2460819.500000000, A.D. 2025-May-24 00:00:00.0000, 4.695684314786639E+08, -1.129618895790175E+08, 6.931961848233004E+07,
2460826.500000000, A.D. 2025-May-31 00:00:00.0000, 4.709164113825353E+08, -1.032253853832903E+08, 7.074248484240474E+07,
2460833.500000000, A.D. 2025-Jun-07 00:00:00.0000, 4.720667760974526E+08, -9.344559634943016E+07, 7.213566214293689E+07,
2460840.500000000, A.D. 2025-Jun-14 00:00:00.0000, 4.730182400051121E+08, -8.362646744337615E+07, 7.349844283019419E+07,
2460847.500000000, A.D. 2025-Jun-21 00:00:00.0000, 4.737695892096080E+08, -7.377199134278658E+07, 7.483012655279857E+07,
2460854.500000000, A.D. 2025-Jun-28 00:00:00.0000, 4.743196835108286E+08, -6.388620901067048E+07, 7.613002044516008E+07,
2460861.500000000, A.D. 2025-Jul-05 00:00:00.0000, 4.746674590707131E+08, -5.397320886794288E+07, 7.739743946549645E+07,
2460868.500000000, A.D. 2025-Jul-12 00:00:00.0000, 4.748119305786203E+08, -4.403712536844415E+07, 7.863170683150166E+07,
2460875.500000000, A.D. 2025-Jul-19 00:00:00.0000, 4.747521931021882E+08, -3.408213754945770E+07, 7.983215448870449E+07,
2460882.500000000, A.D. 2025-Jul-26 00:00:00.0000, 4.744874238305142E+08, -2.411246761163387E+07, 8.099812358708429E+07,
2460889.500000000, A.D. 2025-Aug-02 00:00:00.0000, 4.740168837727020E+08, -1.413237950370178E+07, 8.212896496152523E+07,
2460896.500000000, A.D. 2025-Aug-09 00:00:00.0000, 4.733399194337429E+08, -4.146177523973823E+06, 8.322403961306170E+07,
2460903.500000000, A.D. 2025-Aug-16 00:00:00.0000, 4.724559645435502E+08, 5.841794999850482E+06, 8.428271917924021E+07,
2460910.500000000, A.D. 2025-Aug-23 00:00:00.0000, 4.713645421299172E+08, 1.582715696980545E+07, 8.530438636842708E+07,
2460917.500000000, A.D. 2025-Aug-30 00:00:00.0000, 4.700652672609000E+08, 2.580549143044059E+07, 8.628843538597591E+07,
2460924.500000000, A.D. 2025-Sep-06 00:00:00.0000, 4.685578490349314E+08, 3.577234913736044E+07, 8.723427256390518E+07,
2460931.500000000, A.D. 2025-Sep-13 00:00:00.0000, 4.668420901462279E+08, 4.572325129988552E+07, 8.814131714493768E+07,
2460938.500000000, A.D. 2025-Sep-20 00:00:00.0000, 4.649178872957417E+08, 5.565368985289557E+07, 8.900900178604376E+07,
2460945.500000000, A.D. 2025-Sep-27 00:00:00.0000, 4.627852335008591E+08, 6.555912836978137E+07, 8.983677293753766E+07,
2460952.500000000, A.D. 2025-Oct-04 00:00:00.0000, 4.604442202823611E+08, 7.543500415704267E+07, 9.062409132590432E+07,
2460959.500000000, A.D. 2025-Oct-11 00:00:00.0000, 4.578950393508910E+08, 8.527673058868183E+07, 9.137043249688084E+07,
2460966.500000000, A.D. 2025-Oct-18 00:00:00.0000, 4.551379840725121E+08, 9.507969940702629E+07, 9.207528736959477E+07,
2460973.500000000, A.D. 2025-Oct-25 00:00:00.0000, 4.521734508488450E+08, 1.048392830020732E+08, 9.273816278908955E+07,
2460980.500000000, A.D. 2025-Nov-01 00:00:00.0000, 4.490019404473605E+08, 1.145508366858874E+08, 9.335858207417776E+07,
2460987.500000000, A.D. 2025-Nov-08 00:00:00.0000, 4.456240593127754E+08, 1.242097009314610E+08, 9.393608555426881E+07,
2460994.500000000, A.D. 2025-Nov-15 00:00:00.0000, 4.420405210040404E+08, 1.338112035177882E+08, 9.447023107623607E+07,
2461001.500000000, A.D. 2025-Nov-22 00:00:00.0000, 4.382521481559380E+08, 1.433506618006358E+08, 9.496059446150899E+07,
2461008.500000000, A.D. 2025-Nov-29 00:00:00.0000, 4.342598748068965E+08, 1.528233862429557E+08, 9.540677001869296E+07,
2461015.500000000, A.D. 2025-Dec-06 00:00:00.0000, 4.300647468102647E+08, 1.622246850693100E+08, 9.580837130835713E+07,
2461022.500000000, A.D. 2025-Dec-13 00:00:00.0000, 4.256679207602267E+08, 1.715498666741161E+08, 9.616503184472220E+07,
2461029.500000000, A.D. 2025-Dec-20 00:00:00.0000, 4.210706649221846E+08, 1.807942408045360E+08, 9.647640549646524E+07,
2461036.500000000, A.D. 2025-Dec-27 00:00:00.0000, 4.162743610880770E+08, 1.899531211073388E+08, 9.674216689517280E+07,
2461043.500000000, A.D. 2026-Jan-03 00:00:00.0000, 4.112805058922790E+08, 1.990218284231495E+08, 9.696201193376872E+07,
2461050.500000000, A.D. 2026-Jan-10 00:00:00.0000, 4.060907116934259E+08, 2.079956941480091E+08, 9.713565828842629E+07,
2461057.500000000, A.D. 2026-Jan-17 00:00:00.0000, 4.007067072503764E+08, 2.168700635692278E+08, 9.726284593419367E+07,
2461064.500000000, A.D. 2026-Jan-24 00:00:00.0000, 3.951303382658929E+08, 2.256402991965569E+08, 9.734333764806819E+07,
2461071.500000000, A.D. 2026-Jan-31 00:00:00.0000, 3.893635678171771E+08, 2.343017840794894E+08, 9.737691949581598E+07,
2461078.500000000, A.D. 2026-Feb-07 00:00:00.0000, 3.834084767306935E+08, 2.428499250514447E+08, 9.736340129136045E+07,
2461085.500000000, A.D. 2026-Feb-14 00:00:00.0000, 3.772672641507544E+08, 2.512801558833667E+08, 9.730261700355142E+07,
2461092.500000000, A.D. 2026-Feb-21 00:00:00.0000, 3.709422486861912E+08, 2.595879409205203E+08, 9.719442512101755E+07,
2461099.500000000, A.D. 2026-Feb-28 00:00:00.0000, 3.644358690456535E+08, 2.677687803513804E+08, 9.703870916721873E+07,
2461106.500000000, A.D. 2026-Mar-07 00:00:00.0000, 3.577506820979177E+08, 2.758182151553252E+08, 9.683537839398599E+07,
2461113.500000000, A.D. 2026-Mar-14 00:00:00.0000, 3.508893611313329E+08, 2.837318293931299E+08, 9.658436820819496E+07,
2461120.500000000, A.D. 2026-Mar-21 00:00:00.0000, 3.438546960930088E+08, 2.915052527314909E+08, 9.628564040327293E+07,
2461127.500000000, A.D. 2026-Mar-28 00:00:00.0000, 3.366495937930940E+08, 2.991341642231896E+08, 9.593918346142942E+07,
2461134.500000000, A.D. 2026-Apr-04 00:00:00.0000, 3.292770774652393E+08, 3.066142963716698E+08, 9.554501290122753E+07,
2461141.500000000, A.D. 2026-Apr-11 00:00:00.0000, 3.217402859530268E+08, 3.139414391153648E+08, 9.510317161486274E+07,
2461148.500000000, A.D. 2026-Apr-18 00:00:00.0000, 3.140424726789038E+08, 3.211114437206975E+08, 9.461373017956287E+07,
2461155.500000000, A.D. 2026-Apr-25 00:00:00.0000, 3.061870044401248E+08, 3.281202265937124E+08, 9.407678714002518E+07,
2461162.500000000, A.D. 2026-May-02 00:00:00.0000, 2.981773600619319E+08, 3.349637729751422E+08, 9.349246925647119E+07,
2461169.500000000, A.D. 2026-May-09 00:00:00.0000, 2.900171290323452E+08, 3.416381404463843E+08, 9.286093170098840E+07,
2461176.500000000, A.D. 2026-May-16 00:00:00.0000, 2.817100104964740E+08, 3.481394623781044E+08, 9.218235817807752E+07,
2461183.500000000, A.D. 2026-May-23 00:00:00.0000, 2.732598126624332E+08, 3.544639523363077E+08, 9.145696104707001E+07,
2461190.500000000, A.D. 2026-May-30 00:00:00.0000, 2.646704505389870E+08, 3.606079097561757E+08, 9.068498166111656E+07,
2461197.500000000, A.D. 2026-Jun-06 00:00:00.0000, 2.559459416848219E+08, 3.665677236030948E+08, 8.986669068301509E+07,
2461204.500000000, A.D. 2026-Jun-13 00:00:00.0000, 2.470904036366012E+08, 3.723398742149928E+08, 8.900238805788338E+07,
2461211.500000000, A.D. 2026-Jun-20 00:00:00.0000, 2.381080525165847E+08, 3.779209362441888E+08, 8.809240292658922E+07,
2461218.500000000, A.D. 2026-Jun-27 00:00:00.0000, 2.290032011214737E+08, 3.833075823503442E+08, 8.713709360637024E+07,
2461225.500000000, A.D. 2026-Jul-04 00:00:00.0000, 2.197802564929255E+08, 3.884965868621129E+08, 8.613684757426023E+07,
2461232.500000000, A.D. 2026-Jul-11 00:00:00.0000, 2.104437172251394E+08, 3.934848292683027E+08, 8.509208141840759E+07,
2461239.500000000, A.D. 2026-Jul-18 00:00:00.0000, 2.009981706042462E+08, 3.982692975569411E+08, 8.400324075010735E+07,
2461246.500000000, A.D. 2026-Jul-25 00:00:00.0000, 1.914482896063627E+08, 4.028470913975893E+08, 8.287080007384217E+07,
2461253.500000000, A.D. 2026-Aug-01 00:00:00.0000, 1.817988298051828E+08, 4.072154251114721E+08, 8.169526260642007E+07,
2461260.500000000, A.D. 2026-Aug-08 00:00:00.0000, 1.720546264071183E+08, 4.113716303865482E+08, 8.047716002220568E+07,
2461267.500000000, A.D. 2026-Aug-15 00:00:00.0000, 1.622205918329075E+08, 4.153131591815913E+08, 7.921705212311721E+07,
2461274.500000000, A.D. 2026-Aug-22 00:00:00.0000, 1.523017130898559E+08, 4.190375880339044E+08, 7.791552660286105E+07,
2461281.500000000, A.D. 2026-Aug-29 00:00:00.0000, 1.423030466499322E+08, 4.225426223887437E+08, 7.657319900231579E+07,
2461288.500000000, A.D. 2026-Sep-05 00:00:00.0000, 1.322297129696602E+08, 4.258260980754414E+08, 7.519071242602411E+07,
$$EOE